[{"OBJECT_NAME":"OBJECT AL","OBJECT_ID":"2023-085AL","EPOCH":"2026-03-09T22:26:04.970400","MEAN_MOTION":15.31857284,"ECCENTRICITY":0.000802,"INCLINATION":97.4839,"RA_OF_ASC_NODE":180.0127,"ARG_OF_PERICENTER":78.7242,"MEAN_ANOMALY":281.49,"EPHEMERIS_TYPE":0,"CLASSIFICATION_TYPE":"U","NORAD_CAT_ID":57038,"ELEMENT_SET_NO":999,"REV_AT_EPOCH":15154,"BSTAR":0.0006591637,"MEAN_MOTION_DOT":0.00020246,"MEAN_MOTION_DDOT":0},{"OBJECT_NAME":"STARLINK-35493","OBJECT_ID":"2025-225U","EPOCH":"2026-03-09T13:00:24.135264","MEAN_MOTION":15.30183801,"ECCENTRICITY":0.00011957,"INCLINATION":53.1589,"RA_OF_ASC_NODE":166.4946,"ARG_OF_PERICENTER":80.2123,"MEAN_ANOMALY":279.9013,"EPHEMERIS_TYPE":0,"CLASSIFICATION_TYPE":"U","NORAD_CAT_ID":65928,"ELEMENT_SET_NO":999,"REV_AT_EPOCH":2438,"BSTAR":0.0013905869,"MEAN_MOTION_DOT":0.00041033,"MEAN_MOTION_DDOT":0}]
